CCSDS_OMM_VERS = 2.0
CREATION_DATE  = 
ORIGINATOR     = 

OBJECT_NAME    = STARLINK-36999
OBJECT_ID      = 2026-055G
CENTER_NAME    = EARTH
REF_FRAME      = TEME
TIME_SYSTEM    = UTC
MEAN_ELEMENT_THEORY = SGP/SGP4

EPOCH          = 2026-04-03T22:00:01.999584
MEAN_MOTION    = 15.80906110
ECCENTRICITY   = .00012299
INCLINATION    = 53.1593
RA_OF_ASC_NODE = 210.8171
ARG_OF_PERICENTER = 73.7076
MEAN_ANOMALY   = 234.2376

EPHEMERIS_TYPE = 0
CLASSIFICATION_TYPE = U
NORAD_CAT_ID   = 68268
ELEMENT_SET_NO = 999
REV_AT_EPOCH   = 369
BSTAR          = -.29004643E-3
MEAN_MOTION_DOT = -.57652E-3
MEAN_MOTION_DDOT = 0

CCSDS_OMM_VERS = 2.0
CREATION_DATE  = 
ORIGINATOR     = 

OBJECT_NAME    = STARLINK-36962
OBJECT_ID      = 2026-055H
CENTER_NAME    = EARTH
REF_FRAME      = TEME
TIME_SYSTEM    = UTC
MEAN_ELEMENT_THEORY = SGP/SGP4

EPOCH          = 2026-04-03T22:00:01.999584
MEAN_MOTION    = 15.80894472
ECCENTRICITY   = .00011823
INCLINATION    = 53.1592
RA_OF_ASC_NODE = 210.8083
ARG_OF_PERICENTER = 77.6118
MEAN_ANOMALY   = 234.6101

EPHEMERIS_TYPE = 0
CLASSIFICATION_TYPE = U
NORAD_CAT_ID   = 68269
ELEMENT_SET_NO = 999
REV_AT_EPOCH   = 369
BSTAR          = -.1935278E-3
MEAN_MOTION_DOT = -.38762E-3
MEAN_MOTION_DDOT = 0

CCSDS_OMM_VERS = 2.0
CREATION_DATE  = 
ORIGINATOR     = 

OBJECT_NAME    = STARLINK-37028
OBJECT_ID      = 2026-055J
CENTER_NAME    = EARTH
REF_FRAME      = TEME
TIME_SYSTEM    = UTC
MEAN_ELEMENT_THEORY = SGP/SGP4

EPOCH          = 2026-04-03T22:00:01.999584
MEAN_MOTION    = 15.80960594
ECCENTRICITY   = .00003934
INCLINATION    = 53.1593
RA_OF_ASC_NODE = 210.7902
ARG_OF_PERICENTER = 88.8876
MEAN_ANOMALY   = 231.8366

EPHEMERIS_TYPE = 0
CLASSIFICATION_TYPE = U
NORAD_CAT_ID   = 68270
ELEMENT_SET_NO = 999
REV_AT_EPOCH   = 369
BSTAR          = -.62768801E-3
MEAN_MOTION_DOT = -.123319E-2
MEAN_MOTION_DDOT = 0

CCSDS_OMM_VERS = 2.0
CREATION_DATE  = 
ORIGINATOR     = 

OBJECT_NAME    = STARLINK-37029
OBJECT_ID      = 2026-055K
CENTER_NAME    = EARTH
REF_FRAME      = TEME
TIME_SYSTEM    = UTC
MEAN_ELEMENT_THEORY = SGP/SGP4

EPOCH          = 2026-04-03T22:00:01.999584
MEAN_MOTION    = 15.80903007
ECCENTRICITY   = .00011444
INCLINATION    = 53.1590
RA_OF_ASC_NODE = 210.7994
ARG_OF_PERICENTER = 79.8247
MEAN_ANOMALY   = 236.6726

EPHEMERIS_TYPE = 0
CLASSIFICATION_TYPE = U
NORAD_CAT_ID   = 68271
ELEMENT_SET_NO = 999
REV_AT_EPOCH   = 369
BSTAR          = -.34224607E-3
MEAN_MOTION_DOT = -.67813E-3
MEAN_MOTION_DDOT = 0

CCSDS_OMM_VERS = 2.0
CREATION_DATE  = 
ORIGINATOR     = 

OBJECT_NAME    = STARLINK-36974
OBJECT_ID      = 2026-055L
CENTER_NAME    = EARTH
REF_FRAME      = TEME
TIME_SYSTEM    = UTC
MEAN_ELEMENT_THEORY = SGP/SGP4

EPOCH          = 2026-04-03T22:00:01.999584
MEAN_MOTION    = 15.80887036
ECCENTRICITY   = .00011644
INCLINATION    = 53.1591
RA_OF_ASC_NODE = 210.7814
ARG_OF_PERICENTER = 80.7027
MEAN_ANOMALY   = 244.3473

EPHEMERIS_TYPE = 0
CLASSIFICATION_TYPE = U
NORAD_CAT_ID   = 68272
ELEMENT_SET_NO = 999
REV_AT_EPOCH   = 369
BSTAR          = -.23066925E-3
MEAN_MOTION_DOT = -.46013E-3
MEAN_MOTION_DDOT = 0

CCSDS_OMM_VERS = 2.0
CREATION_DATE  = 
ORIGINATOR     = 

OBJECT_NAME    = STARLINK-37019
OBJECT_ID      = 2026-055M
CENTER_NAME    = EARTH
REF_FRAME      = TEME
TIME_SYSTEM    = UTC
MEAN_ELEMENT_THEORY = SGP/SGP4

EPOCH          = 2026-04-03T22:00:01.999584
MEAN_MOTION    = 15.80876135
ECCENTRICITY   = .00011077
INCLINATION    = 53.1591
RA_OF_ASC_NODE = 210.7719
ARG_OF_PERICENTER = 90.4587
MEAN_ANOMALY   = 238.8622

EPHEMERIS_TYPE = 0
CLASSIFICATION_TYPE = U
NORAD_CAT_ID   = 68273
ELEMENT_SET_NO = 999
REV_AT_EPOCH   = 369
BSTAR          = -.13319116E-3
MEAN_MOTION_DOT = -.26908E-3
MEAN_MOTION_DDOT = 0

CCSDS_OMM_VERS = 2.0
CREATION_DATE  = 
ORIGINATOR     = 

OBJECT_NAME    = STARLINK-37129
OBJECT_ID      = 2026-055N
CENTER_NAME    = EARTH
REF_FRAME      = TEME
TIME_SYSTEM    = UTC
MEAN_ELEMENT_THEORY = SGP/SGP4

EPOCH          = 2026-04-03T22:00:01.999584
MEAN_MOTION    = 15.80882653
ECCENTRICITY   = .00014493
INCLINATION    = 53.1590
RA_OF_ASC_NODE = 210.7632
ARG_OF_PERICENTER = 84.4825
MEAN_ANOMALY   = 249.1098

EPHEMERIS_TYPE = 0
CLASSIFICATION_TYPE = U
NORAD_CAT_ID   = 68274
ELEMENT_SET_NO = 999
REV_AT_EPOCH   = 369
BSTAR          = -.18580632E-3
MEAN_MOTION_DOT = -.37232E-3
MEAN_MOTION_DDOT = 0

CCSDS_OMM_VERS = 2.0
CREATION_DATE  = 
ORIGINATOR     = 

OBJECT_NAME    = STARLINK-37123
OBJECT_ID      = 2026-055P
CENTER_NAME    = EARTH
REF_FRAME      = TEME
TIME_SYSTEM    = UTC
MEAN_ELEMENT_THEORY = SGP/SGP4

EPOCH          = 2026-04-03T22:00:01.999584
MEAN_MOTION    = 15.80917998
ECCENTRICITY   = .00014017
INCLINATION    = 53.1591
RA_OF_ASC_NODE = 210.7548
ARG_OF_PERICENTER = 86.1805
MEAN_ANOMALY   = 251.6960

EPHEMERIS_TYPE = 0
CLASSIFICATION_TYPE = U
NORAD_CAT_ID   = 68275
ELEMENT_SET_NO = 999
REV_AT_EPOCH   = 369
BSTAR          = -.63754786E-3
MEAN_MOTION_DOT = -.124992E-2
MEAN_MOTION_DDOT = 0

CCSDS_OMM_VERS = 2.0
CREATION_DATE  = 
ORIGINATOR     = 

OBJECT_NAME    = STARLINK-37125
OBJECT_ID      = 2026-055Q
CENTER_NAME    = EARTH
REF_FRAME      = TEME
TIME_SYSTEM    = UTC
MEAN_ELEMENT_THEORY = SGP/SGP4

EPOCH          = 2026-04-03T22:00:01.999584
MEAN_MOTION    = 15.80907333
ECCENTRICITY   = .00011897
INCLINATION    = 53.1589
RA_OF_ASC_NODE = 210.7458
ARG_OF_PERICENTER = 67.2298
MEAN_ANOMALY   = 274.8962

EPHEMERIS_TYPE = 0
CLASSIFICATION_TYPE = U
NORAD_CAT_ID   = 68276
ELEMENT_SET_NO = 999
REV_AT_EPOCH   = 369
BSTAR          = -.30787629E-3
MEAN_MOTION_DOT = -.61132E-3
MEAN_MOTION_DDOT = 0

CCSDS_OMM_VERS = 2.0
CREATION_DATE  = 
ORIGINATOR     = 

OBJECT_NAME    = STARLINK-36989
OBJECT_ID      = 2026-055R
CENTER_NAME    = EARTH
REF_FRAME      = TEME
TIME_SYSTEM    = UTC
MEAN_ELEMENT_THEORY = SGP/SGP4

EPOCH          = 2026-04-03T22:00:01.999584
MEAN_MOTION    = 15.80907542
ECCENTRICITY   = .00008595
INCLINATION    = 53.1591
RA_OF_ASC_NODE = 210.7190
ARG_OF_PERICENTER = 72.6210
MEAN_ANOMALY   = 282.3439

EPHEMERIS_TYPE = 0
CLASSIFICATION_TYPE = U
NORAD_CAT_ID   = 68277
ELEMENT_SET_NO = 999
REV_AT_EPOCH   = 369
BSTAR          = -.52406275E-3
MEAN_MOTION_DOT = -.103068E-2
MEAN_MOTION_DDOT = 0

CCSDS_OMM_VERS = 2.0
CREATION_DATE  = 
ORIGINATOR     = 

OBJECT_NAME    = STARLINK-36982
OBJECT_ID      = 2026-055S
CENTER_NAME    = EARTH
REF_FRAME      = TEME
TIME_SYSTEM    = UTC
MEAN_ELEMENT_THEORY = SGP/SGP4

EPOCH          = 2026-04-03T22:00:01.999584
MEAN_MOTION    = 15.80904041
ECCENTRICITY   = .00007522
INCLINATION    = 53.1591
RA_OF_ASC_NODE = 210.7286
ARG_OF_PERICENTER = 77.6068
MEAN_ANOMALY   = 273.0921

EPHEMERIS_TYPE = 0
CLASSIFICATION_TYPE = U
NORAD_CAT_ID   = 68278
ELEMENT_SET_NO = 999
REV_AT_EPOCH   = 369
BSTAR          = -.49125531E-3
MEAN_MOTION_DOT = -.96713E-3
MEAN_MOTION_DDOT = 0

CCSDS_OMM_VERS = 2.0
CREATION_DATE  = 
ORIGINATOR     = 

OBJECT_NAME    = STARLINK-36934
OBJECT_ID      = 2026-055T
CENTER_NAME    = EARTH
REF_FRAME      = TEME
TIME_SYSTEM    = UTC
MEAN_ELEMENT_THEORY = SGP/SGP4

EPOCH          = 2026-04-03T22:00:01.999584
MEAN_MOTION    = 15.80902748
ECCENTRICITY   = .00011863
INCLINATION    = 53.1591
RA_OF_ASC_NODE = 210.7375
ARG_OF_PERICENTER = 85.3076
MEAN_ANOMALY   = 261.1074

EPHEMERIS_TYPE = 0
CLASSIFICATION_TYPE = U
NORAD_CAT_ID   = 68279
ELEMENT_SET_NO = 999
REV_AT_EPOCH   = 369
BSTAR          = -.41367939E-3
MEAN_MOTION_DOT = -.81691E-3
MEAN_MOTION_DDOT = 0

