STARLINK-36999          
1 68268U 26055G   26093.91668981 -.00057652  00000+0 -29005-3 0  9991
2 68268  53.1593 210.8171 0001229  73.7076 234.2376 15.80906110  3698
STARLINK-36962          
1 68269U 26055H   26093.91668981 -.00038762  00000+0 -19353-3 0  9998
2 68269  53.1592 210.8083 0001182  77.6118 234.6101 15.80894472  3695
STARLINK-37028          
1 68270U 26055J   26093.91668981 -.00123319  00000+0 -62769-3 0  9992
2 68270  53.1593 210.7902 0000393  88.8876 231.8366 15.80960594  3696
STARLINK-37029          
1 68271U 26055K   26093.91668981 -.00067813  00000+0 -34225-3 0  9995
2 68271  53.1590 210.7994 0001144  79.8247 236.6726 15.80903007  3691
STARLINK-36974          
1 68272U 26055L   26093.91668981 -.00046013  00000+0 -23067-3 0  9997
2 68272  53.1591 210.7814 0001164  80.7027 244.3473 15.80887036  3691
STARLINK-37019          
1 68273U 26055M   26093.91668981 -.00026908  00000+0 -13319-3 0  9998
2 68273  53.1591 210.7719 0001107  90.4587 238.8622 15.80876135  3694
STARLINK-37129          
1 68274U 26055N   26093.91668981 -.00037232  00000+0 -18581-3 0  9997
2 68274  53.1590 210.7632 0001449  84.4825 249.1098 15.80882653  3699
STARLINK-37123          
1 68275U 26055P   26093.91668981 -.00124992  00000+0 -63755-3 0  9991
2 68275  53.1591 210.7548 0001401  86.1805 251.6960 15.80917998  3699
STARLINK-37125          
1 68276U 26055Q   26093.91668981 -.00061132  00000+0 -30788-3 0  9998
2 68276  53.1589 210.7458 0001189  67.2298 274.8962 15.80907333  3697
STARLINK-36989          
1 68277U 26055R   26093.91668981 -.00103068  00000+0 -52406-3 0  9995
2 68277  53.1591 210.7190 0000859  72.6210 282.3439 15.80907542  3696
STARLINK-36982          
1 68278U 26055S   26093.91668981 -.00096713  00000+0 -49126-3 0  9999
2 68278  53.1591 210.7286 0000752  77.6068 273.0921 15.80904041  3695
STARLINK-36934          
1 68279U 26055T   26093.91668981 -.00081691  00000+0 -41368-3 0  9999
2 68279  53.1591 210.7375 0001186  85.3076 261.1074 15.80902748  3691
